{"type": "FeatureCollection", "features": [ {"type": "Feature", "properties": {"norad_id": 34400, "name": "COSMOS 2251 DEB", "group": "cosmos-2251-debris", "lat": 33.622952999961555, "lon": 53.3241705811999, "alt_km": 421.5397253616202, "timestamp": "2025-12-04T03:47:54.936275+00:00", "meta": {"OBJECT_NAME": "COSMOS 2251 DEB", "OBJECT_ID": "1993-036QR", "EPOCH": "2025-12-03T05:56:19.095936", "MEAN_MOTION": 15.48273281, "ECCENTRICITY": 0.0007816, "INCLINATION": 73.9695, "RA_OF_ASC_NODE": 44.3022, "ARG_OF_PERICENTER": 269.3457, "MEAN_ANOMALY": 90.686, "EPHEMERIS_TYPE": 0, "CLASSIFICATION_TYPE": "U", "NORAD_CAT_ID": 34400, "ELEMENT_SET_NO": 999, "REV_AT_EPOCH": 89827, "BSTAR": 0.0040315, "MEAN_MOTION_DOT": 0.00219083, "MEAN_MOTION_DDOT": 0}, "tle": {"line1": "1 34400U 93036QR  25337.24744324  .00219083  00000+0  40315-2 0  9999", "line2": "2 34400  73.9695  44.3022 0007816 269.3457  90.6860 15.48273281898279"}}, "geometry": {"type": "Point", "coordinates": [53.3241705811999, 33.622952999961555]}}, {"type": "Feature", "properties": {"norad_id": 34409, "name": "COSMOS 2251 DEB", "group": "cosmos-2251-debris", "lat": -61.3582837416765, "lon": -68.41063041820628, "alt_km": 721.2391886980986, "timestamp": "2025-12-04T03:47:54.936285+00:00", "meta": {"OBJECT_NAME": "COSMOS 2251 DEB", "OBJECT_ID": "1993-036RA", "EPOCH": "2025-12-03T17:22:58.217088", "MEAN_MOTION": 14.57991033, "ECCENTRICITY": 0.0079481, "INCLINATION": 74.0627, "RA_OF_ASC_NODE": 323.9601, "ARG_OF_PERICENTER": 40.7465, "MEAN_ANOMALY": 137.3179, "EPHEMERIS_TYPE": 0, "CLASSIFICATION_TYPE": "U", "NORAD_CAT_ID": 34409, "ELEMENT_SET_NO": 999, "REV_AT_EPOCH": 89061, "BSTAR": 0.0003449, "MEAN_MOTION_DOT": 1.624e-05, "MEAN_MOTION_DDOT": 0}, "tle": {"line1": "1 34409U 93036RA  25337.72428492  .00001624  00000+0  34490-3 0  9994", "line2": "2 34409  74.0627 323.9601 0079481  40.7465 137.3179 14.57991033890614"}}, "geometry": {"type": "Point", "coordinates": [-68.41063041820628, -61.3582837416765]}}, {"type": "Feature", "properties": {"norad_id": 34410, "name": "COSMOS 2251 DEB", "group": "cosmos-2251-debris", "lat": -73.5283945462764, "lon": -160.81008474738448, "alt_km": 532.6782579171822, "timestamp": "2025-12-04T03:47:54.936296+00:00", "meta": {"OBJECT_NAME": "COSMOS 2251 DEB", "OBJECT_ID": "1993-036RB", "EPOCH": "2025-12-03T06:41:33.694080", "MEAN_MOTION": 15.17454406, "ECCENTRICITY": 0.002077, "INCLINATION": 73.7389, "RA_OF_ASC_NODE": 281.8776, "ARG_OF_PERICENTER": 123.4195, "MEAN_ANOMALY": 26.8425, "EPHEMERIS_TYPE": 0, "CLASSIFICATION_TYPE": "U", "NORAD_CAT_ID": 34410, "ELEMENT_SET_NO": 999, "REV_AT_EPOCH": 89630, "BSTAR": 0.003017, "MEAN_MOTION_DOT": 0.00061222, "MEAN_MOTION_DDOT": 0}, "tle": {"line1": "1 34410U 93036RB  25337.27886220  .00061222  00000+0  30170-2 0  9993", "line2": "2 34410  73.7389 281.8776 0020770 123.4195  26.8425 15.17454406896301"}}, "geometry": {"type": "Point", "coordinates": [-160.81008474738448, -73.5283945462764]}}, {"type": "Feature", "properties": {"norad_id": 34412, "name": "COSMOS 2251 DEB", "group": "cosmos-2251-debris", "lat": 52.79629690164287, "lon": 138.4581145867851, "alt_km": 636.5070463008087, "timestamp": "2025-12-04T03:47:54.936306+00:00", "meta": {"OBJECT_NAME": "COSMOS 2251 DEB", "OBJECT_ID": "1993-036RD", "EPOCH": "2025-12-03T10:39:06.052320", "MEAN_MOTION": 14.46988265, "ECCENTRICITY": 0.018713, "INCLINATION": 73.9477, "RA_OF_ASC_NODE": 342.0894, "ARG_OF_PERICENTER": 79.4118, "MEAN_ANOMALY": 282.8057, "EPHEMERIS_TYPE": 0, "CLASSIFICATION_TYPE": "U", "NORAD_CAT_ID": 34412, "ELEMENT_SET_NO": 999, "REV_AT_EPOCH": 87516, "BSTAR": 0.0011168, "MEAN_MOTION_DOT": 5.031e-05, "MEAN_MOTION_DDOT": 0}, "tle": {"line1": "1 34412U 93036RD  25337.44382005  .00005031  00000+0  11168-2 0  9998", "line2": "2 34412  73.9477 342.0894 0187130  79.4118 282.8057 14.46988265875165"}}, "geometry": {"type": "Point", "coordinates": [138.4581145867851, 52.79629690164287]}}, {"type": "Feature", "properties": {"norad_id": 34413, "name": "COSMOS 2251 DEB", "group": "cosmos-2251-debris", "lat": 73.94055229358881, "lon": 16.37641630907271, "alt_km": 790.7084101874816, "timestamp": "2025-12-04T03:47:54.936316+00:00", "meta": {"OBJECT_NAME": "COSMOS 2251 DEB", "OBJECT_ID": "1993-036RE", "EPOCH": "2025-12-03T07:48:21.134304", "MEAN_MOTION": 14.28961442, "ECCENTRICITY": 0.0090642, "INCLINATION": 74.0314, "RA_OF_ASC_NODE": 281.9739, "ARG_OF_PERICENTER": 0.215, "MEAN_ANOMALY": 126.7484, "EPHEMERIS_TYPE": 0, "CLASSIFICATION_TYPE": "U", "NORAD_CAT_ID": 34413, "ELEMENT_SET_NO": 999, "REV_AT_EPOCH": 86996, "BSTAR": 0.0025562, "MEAN_MOTION_DOT": 6.734e-05, "MEAN_MOTION_DDOT": 0}, "tle": {"line1": "1 34413U 93036RE  25337.32524461  .00006734  00000+0  25562-2 0  9994", "line2": "2 34413  74.0314 281.9739 0090642   0.2150 126.7484 14.28961442869965"}}, "geometry": {"type": "Point", "coordinates": [16.37641630907271, 73.94055229358881]}}, {"type": "Feature", "properties": {"norad_id": 34420, "name": "COSMOS 2251 DEB", "group": "cosmos-2251-debris", "lat": 49.942985856631836, "lon": 140.46819178957378, "alt_km": 735.7400055015596, "timestamp": "2025-12-04T03:47:54.936326+00:00", "meta": {"OBJECT_NAME": "COSMOS 2251 DEB", "OBJECT_ID": "1993-036RM", "EPOCH": "2025-12-03T13:23:23.385120", "MEAN_MOTION": 14.68252012, "ECCENTRICITY": 0.0106965, "INCLINATION": 74.0319, "RA_OF_ASC_NODE": 121.7186, "ARG_OF_PERICENTER": 244.9528, "MEAN_ANOMALY": 235.6026, "EPHEMERIS_TYPE": 0, "CLASSIFICATION_TYPE": "U", "NORAD_CAT_ID": 34420, "ELEMENT_SET_NO": 999, "REV_AT_EPOCH": 89635, "BSTAR": 0.00034991, "MEAN_MOTION_DOT": 2.164e-05, "MEAN_MOTION_DDOT": 0}, "tle": {"line1": "1 34420U 93036RM  25337.55790955  .00002164  00000+0  34991-3 0  9990", "line2": "2 34420  74.0319 121.7186 0106965 244.9528 235.6026 14.68252012896352"}}, "geometry": {"type": "Point", "coordinates": [140.46819178957378, 49.942985856631836]}}, {"type": "Feature", "properties": {"norad_id": 34425, "name": "COSMOS 2251 DEB", "group": "cosmos-2251-debris", "lat": -27.73676983110443, "lon": 62.29720812420116, "alt_km": 704.0515603446738, "timestamp": "2025-12-04T03:47:54.936336+00:00", "meta": {"OBJECT_NAME": "COSMOS 2251 DEB", "OBJECT_ID": "1993-036RS", "EPOCH": "2025-12-03T13:09:04.556160", "MEAN_MOTION": 14.62033992, "ECCENTRICITY": 0.0025502, "INCLINATION": 74.0206, "RA_OF_ASC_NODE": 72.1322, "ARG_OF_PERICENTER": 200.5723, "MEAN_ANOMALY": 159.4419, "EPHEMERIS_TYPE": 0, "CLASSIFICATION_TYPE": "U", "NORAD_CAT_ID": 34425, "ELEMENT_SET_NO": 999, "REV_AT_EPOCH": 88606, "BSTAR": 0.0010137, "MEAN_MOTION_DOT": 5.083e-05, "MEAN_MOTION_DDOT": 0}, "tle": {"line1": "1 34425U 93036RS  25337.54796940  .00005083  00000+0  10137-2 0  9992", "line2": "2 34425  74.0206  72.1322 0025502 200.5723 159.4419 14.62033992886069"}}, "geometry": {"type": "Point", "coordinates": [62.29720812420116, -27.73676983110443]}}, {"type": "Feature", "properties": {"norad_id": 34429, "name": "COSMOS 2251 DEB", "group": "cosmos-2251-debris", "lat": 18.172238491144235, "lon": 1.1996922157625556, "alt_km": 456.6099183621409, "timestamp": "2025-12-04T03:47:54.936346+00:00", "meta": {"OBJECT_NAME": "COSMOS 2251 DEB", "OBJECT_ID": "1993-036RW", "EPOCH": "2025-12-03T16:26:43.267200", "MEAN_MOTION": 15.37003186, "ECCENTRICITY": 0.0005738, "INCLINATION": 73.9726, "RA_OF_ASC_NODE": 187.6354, "ARG_OF_PERICENTER": 39.693, "MEAN_ANOMALY": 24.6907, "EPHEMERIS_TYPE": 0, "CLASSIFICATION_TYPE": "U", "NORAD_CAT_ID": 34429, "ELEMENT_SET_NO": 999, "REV_AT_EPOCH": 89309, "BSTAR": 0.0057078, "MEAN_MOTION_DOT": 0.0021266, "MEAN_MOTION_DDOT": 0}, "tle": {"line1": "1 34429U 93036RW  25337.68522300  .00212660  00000+0  57078-2 0  9994", "line2": "2 34429  73.9726 187.6354 0005738  39.6930  24.6907 15.37003186893096"}}, "geometry": {"type": "Point", "coordinates": [1.1996922157625556, 18.172238491144235]}}, {"type": "Feature", "properties": {"norad_id": 34430, "name": "COSMOS 2251 DEB", "group": "cosmos-2251-debris", "lat": 73.73223112460651, "lon": 37.709673122153944, "alt_km": 728.224449860365, "timestamp": "2025-12-04T03:47:54.936356+00:00", "meta": {"OBJECT_NAME": "COSMOS 2251 DEB", "OBJECT_ID": "1993-036RX", "EPOCH": "2025-12-03T15:43:35.492160", "MEAN_MOTION": 14.39584884, "ECCENTRICITY": 0.0059922, "INCLINATION": 74.0511, "RA_OF_ASC_NODE": 320.1234, "ARG_OF_PERICENTER": 32.0855, "MEAN_ANOMALY": 328.3924, "EPHEMERIS_TYPE": 0, "CLASSIFICATION_TYPE": "U", "NORAD_CAT_ID": 34430, "ELEMENT_SET_NO": 999, "REV_AT_EPOCH": 87824, "BSTAR": 0.00067138, "MEAN_MOTION_DOT": 2.116e-05, "MEAN_MOTION_DDOT": 0}, "tle": {"line1": "1 34430U 93036RX  25337.65527190  .00002116  00000+0  67138-3 0  9997", "line2": "2 34430  74.0511 320.1234 0059922  32.0855 328.3924 14.39584884878243"}}, "geometry": {"type": "Point", "coordinates": [37.709673122153944, 73.73223112460651]}}, {"type": "Feature", "properties": {"norad_id": 34431, "name": "COSMOS 2251 DEB", "group": "cosmos-2251-debris", "lat": -34.86052206707805, "lon": 179.25989350972552, "alt_km": 842.0785450724097, "timestamp": "2025-12-04T03:47:54.936366+00:00", "meta": {"OBJECT_NAME": "COSMOS 2251 DEB", "OBJECT_ID": "1993-036RY", "EPOCH": "2025-12-03T01:04:59.473920", "MEAN_MOTION": 14.28727352, "ECCENTRICITY": 0.00687591, "INCLINATION": 74.074, "RA_OF_ASC_NODE": 192.7465, "ARG_OF_PERICENTER": 181.072, "MEAN_ANOMALY": 179.0293, "EPHEMERIS_TYPE": 0, "CLASSIFICATION_TYPE": "U", "NORAD_CAT_ID": 34431, "ELEMENT_SET_NO": 999, "REV_AT_EPOCH": 87004, "BSTAR": 0.00069984948, "MEAN_MOTION_DOT": 1.781e-05, "MEAN_MOTION_DDOT": 0}, "tle": {"line1": "1 34431U 93036RY  25337.04513280  .00001781  00000+0  69985-3 0  9995", "line2": "2 34431  74.0740 192.7465 0068759 181.0720 179.0293 14.28727352870048"}}, "geometry": {"type": "Point", "coordinates": [179.25989350972552, -34.86052206707805]}}]}